SL-16 R/B               
1 25407U 98045B   26071.68103589  .00000297  00000+0  17402-3 0  9994
2 25407  71.0120 175.2837 0006932   3.5595 356.5576 14.16191601427528
ISS (ZARYA)             
1 25544U 98067A   26071.61089376  .00009081  00000+0  17507-3 0  9996
2 25544  51.6325  57.9128 0007968 184.9992 175.0918 15.48604404556786
CZ-4B R/B               
1 25732U 99025C   26071.63843802  .00000054  00000+0  46771-4 0  9991
2 25732  98.6621 115.8501 0036592 338.0096 133.9497 14.18265985388585
OKEAN-O                 
1 25860U 99039A   26071.62607769  .00000871  00000+0  12103-3 0  9995
2 25860  97.9435 131.4876 0001167  70.7186 289.4152 14.80341084434829
SL-16 R/B               
1 25861U 99039B   26071.60317568  .00000733  00000+0  99680-4 0  9992
2 25861  97.9961 130.6957 0013593 245.6497 114.3296 14.81736426437297
DELTA 2 R/B             
1 25876U 99041E   26071.55663152  .00001427  00000+0  26782-3 0  9991
2 25876  51.7625 289.8292 0502445 356.8855   2.8986 14.11847454363437
HELIOS 1B               
1 25977U 99064A   26071.67322810  .00002359  00000+0  26522-3 0  9991
2 25977  98.1685 334.0039 0002427  71.3671 288.7808 14.87712862685704
TERRA                   
1 25994U 99068A   26071.66717493  .00000539  00000+0  11893-3 0  9991
2 25994  97.9588 124.9881 0002876 144.7271 313.2913 14.61018426395517
SL-16 R/B               
1 26070U 00006B   26071.48526719 -.00000168  00000+0 -61237-4 0  9998
2 26070  71.0006  91.9589 0016616 186.1025 173.9898 14.15825371348956
TITAN 4B R/B            
1 26474U 00047B   26071.61186999  .00005302  00000+0  33160-3 0  9994
2 26474  67.9903  32.2928 0038663  31.9673 328.3810 15.09595648393350
ENVISAT                 
1 27386U 02009A   26071.47222046  .00000169  00000+0  68716-4 0  9997
2 27386  98.3732  25.0034 0001309  83.1199  26.8150 14.39038169259572
IDEFIX & ARIANE 42P R/B 
1 27422U 02021B   26071.57233978  .00000347  00000+0  14826-3 0  9999
2 27422  98.5870  10.1441 0011747 173.6441 186.4894 14.31028525244431
